NORAD_CAT_ID,OBJECT_NAME,OBJECT_TYPE,EPOCH,MEAN_MOTION,ECCENTRICITY,INCLINATION,RA_OF_ASC_NODE,ARG_OF_PERICENTER,MEAN_ANOMALY,BSTAR,MEAN_MOTION_DOT,MEAN_MOTION_DDOT,TLE_LINE0,TLE_LINE1,TLE_LINE2,SEMIMAJOR_AXIS,PERIOD,APOGEE,PERIGEE,DECAYED
53561.0,STARLINK-4563,PAYLOAD,2023-05-04 05:11:14,15.08846392,0.0001152,53.217,54.9938,102.0529,258.0593,9.7091e-06,-1.33e-06,0.0,0 STARLINK-4563,1 53561U 22101AL  23124.21613651 -.00000133  00000-0  97091-5 0  9992,2 53561  53.2170  54.9938 0001152 102.0529 258.0593 15.08846392 39231,6917.861,95.437,540.523,538.929,0.0
53561.0,STARLINK-4563,PAYLOAD,2023-05-04 19:29:42,15.08854562,0.0001245,53.2173,52.3169,84.8796,275.2338,-0.00010446,-1.951e-05,0.0,0 STARLINK-4563,1 53561U 22101AL  23124.81229743 -.00001951  00000-0 -10446-3 0  9990,2 53561  53.2173  52.3169 0001245  84.8796 275.2338 15.08854562 39324,6917.836,95.437,540.562,538.84,0.0
53561.0,STARLINK-4563,PAYLOAD,2023-05-05 05:02:00,15.08853439,0.0001178,53.2183,50.5335,91.1049,269.0079,9.1304e-05,1.166e-05,0.0,0 STARLINK-4563,1 53561U 22101AL  23125.20972736  .00001166  00000-0  91304-4 0  9990,2 53561  53.2183  50.5335 0001178  91.1049 269.0079 15.08853439 39388,6917.839,95.437,540.519,538.889,0.0
53561.0,STARLINK-4563,PAYLOAD,2023-05-06 01:42:02,15.08840366,0.0001121,53.2177,46.6683,91.772,268.3401,1.8637e-05,9e-08,0.0,0 STARLINK-4563,1 53561U 22101AL  23126.07086010  .00000009  00000-0  18637-4 0  9990,2 53561  53.2177  46.6683 0001121  91.7720 268.3401 15.08840366 39514,6917.879,95.438,540.52,538.969,0.0
53561.0,STARLINK-4563,PAYLOAD,2023-05-06 04:52:48,15.0884368,0.0001169,53.218,46.0727,91.9228,268.1898,5.6872e-05,6.17e-06,0.0,0 STARLINK-4563,1 53561U 22101AL  23126.20333783  .00000617  00000-0  56872-4 0  9995,2 53561  53.2180  46.0727 0001169  91.9228 268.1898 15.08843680 39530,6917.869,95.437,540.543,538.925,0.0
53561.0,STARLINK-4563,PAYLOAD,2023-05-07 01:32:48,15.08850308,0.000117,53.2177,42.2077,99.9195,260.1929,8.9014e-05,1.129e-05,0.0,0 STARLINK-4563,1 53561U 22101AL  23127.06445218  .00001129  00000-0  89014-4 0  9990,2 53561  53.2177  42.2077 0001170  99.9195 260.1929 15.08850308 39661,6917.849,95.437,540.523,538.904,0.0
53561.0,STARLINK-4563,PAYLOAD,2023-05-07 22:12:51,15.0879779,0.0001359,53.2157,38.3453,118.8642,241.2487,0.00050562,7.759e-05,0.0,0 STARLINK-4563,1 53561U 22101AL  23127.92559310  .00007759  00000-0  50562-3 0  9994,2 53561  53.2157  38.3453 0001359 118.8642 241.2487 15.08797790 39798,6918.009,95.44,540.815,538.934,0.0
53561.0,STARLINK-4563,PAYLOAD,2023-05-08 01:23:37,15.08833732,0.0001064,53.2166,37.7497,116.3119,243.7982,2.2422e-05,6.9e-07,0.0,0 STARLINK-4563,1 53561U 22101AL  23128.05806762  .00000069  00000-0  22422-4 0  9997,2 53561  53.2166  37.7497 0001064 116.3119 243.7982 15.08833732 39811,6917.9,95.438,540.501,539.028,0.0
53561.0,STARLINK-4563,PAYLOAD,2023-05-08 22:03:37,15.08845931,9.91e-05,53.2184,33.882,85.9552,274.1554,4.645e-05,4.52e-06,0.0,0 STARLINK-4563,1 53561U 22101AL  23128.91918286  .00000452  00000-0  46450-4 0  9990,2 53561  53.2184  33.8820 0000991  85.9552 274.1554 15.08845931 39949,6917.862,95.437,540.413,539.042,0.0
53561.0,STARLINK-4563,PAYLOAD,2023-05-09 01:14:23,15.08850706,0.0001115,53.2186,33.286,83.1882,276.9237,7.7801e-05,9.51e-06,0.0,0 STARLINK-4563,1 53561U 22101AL  23129.05165912  .00000951  00000-0  77801-4 0  9994,2 53561  53.2186  33.2860 0001115  83.1882 276.9237 15.08850706 39960,6917.848,95.437,540.484,538.941,0.0
53561.0,STARLINK-4563,PAYLOAD,2023-05-10 01:05:10,15.08843122,0.0001082,53.219,28.8258,86.2954,273.8162,0.00012914,1.768e-05,0.0,0 STARLINK-4563,1 53561U 22101AL  23130.04526330  .00001768  00000-0  12914-3 0  9990,2 53561  53.2190  28.8258 0001082  86.2954 273.8162 15.08843122 40119,6917.871,95.437,540.484,538.987,0.0
53561.0,STARLINK-4563,PAYLOAD,2023-05-10 16:59:02,15.08840458,0.0001192,53.2189,25.8528,83.2682,276.8446,3.1356e-05,2.11e-06,0.0,0 STARLINK-4563,1 53561U 22101AL  23130.70766843  .00000211  00000-0  31356-4 0  9992,2 53561  53.2189  25.8528 0001192  83.2682 276.8446 15.08840458 40219,6917.879,95.438,540.569,538.919,0.0
53561.0,STARLINK-4563,PAYLOAD,2023-05-10 23:20:34,15.08844947,0.0001044,53.2184,24.663,91.821,268.2901,0.00010232,1.341e-05,0.0,0 STARLINK-4563,1 53561U 22101AL  23130.97262280  .00001341  00000-0  10232-3 0  9991,2 53561  53.2184  24.6630 0001044  91.8210 268.2901 15.08844947 40255,6917.865,95.437,540.452,539.008,0.0
53561.0,STARLINK-4563,PAYLOAD,2023-05-11 23:11:22,15.08835324,0.0001128,53.2184,20.2032,88.3715,271.7406,4.8684e-06,-2.1e-06,0.0,0 STARLINK-4563,1 53561U 22101AL  23131.96623367 -.00000210  00000-0  48684-5 0  9997,2 53561  53.2184  20.2032 0001128  88.3715 271.7406 15.08835324 40402,6917.895,95.438,540.54,538.979,0.0
53561.0,STARLINK-4563,PAYLOAD,2023-05-12 21:26:45,15.08845746,0.0001094,53.2179,16.0405,75.7532,284.3582,8.4434e-05,1.056e-05,0.0,0 STARLINK-4563,1 53561U 22101AL  23132.89358702  .00001056  00000-0  84434-4 0  9998,2 53561  53.2179  16.0405 0001094  75.7532 284.3582 15.08845746 40541,6917.863,95.437,540.485,538.971,0.0
53561.0,STARLINK-4563,PAYLOAD,2023-05-13 19:42:10,15.0883728,0.0001119,53.2185,11.8793,68.3942,291.7169,7.4637e-05,9e-06,0.0,0 STARLINK-4563,1 53561U 22101AL  23133.82095433  .00000900  00000-0  74637-4 0  9992,2 53561  53.2185  11.8793 0001119  68.3942 291.7169 15.08837280 40684,6917.889,95.438,540.528,538.98,0.0
53561.0,STARLINK-4563,PAYLOAD,2023-05-13 21:17:33,15.08837467,0.0001122,53.2184,11.5819,68.2455,291.8656,7.4382e-05,8.96e-06,0.0,0 STARLINK-4563,1 53561U 22101AL  23133.88719428  .00000896  00000-0  74382-4 0  9996,2 53561  53.2184  11.5819 0001122  68.2455 291.8656 15.08837467 40691,6917.888,95.438,540.529,538.977,0.0
53561.0,STARLINK-4563,PAYLOAD,2023-05-13 22:52:56,15.08838095,0.0001108,53.2193,11.2866,95.1575,264.9544,8.8423e-05,1.12e-05,0.0,0 STARLINK-4563,1 53561U 22101AL  23133.95343260  .00001120  00000-0  88423-4 0  9993,2 53561  53.2193  11.2866 0001108  95.1575 264.9544 15.08838095 40703,6917.886,95.438,540.518,538.985,0.0
53561.0,STARLINK-4563,PAYLOAD,2023-05-14 21:08:20,15.08841404,0.0001024,53.218,7.1217,100.6755,259.4352,-7.3964e-05,-1.465e-05,0.0,0 STARLINK-4563,1 53561U 22101AL  23134.88079627 -.00001465  00000-0 -73964-4 0  9997,2 53561  53.2180   7.1217 0001024 100.6755 259.4352 15.08841404 40841,6917.876,95.437,540.449,539.033,0.0
53561.0,STARLINK-4563,PAYLOAD,2023-05-14 22:43:44,15.08793122,0.0001362,53.2179,6.8245,98.6528,261.4618,0.00058507,9.024e-05,0.0,0 STARLINK-4563,1 53561U 22101AL  23134.94704527  .00009024  00000-0  58507-3 0  9990,2 53561  53.2179   6.8245 0001362  98.6528 261.4618 15.08793122 40857,6918.024,95.441,540.831,538.946,0.0
53561.0,STARLINK-4563,PAYLOAD,2023-05-15 08:16:02,15.08836851,9.74e-05,53.2178,5.0399,94.6387,265.4716,3.7696e-05,3.12e-06,0.0,0 STARLINK-4563,1 53561U 22101AL  23135.34447609  .00000312  00000-0  37696-4 0  9998,2 53561  53.2178   5.0399 0000974  94.6387 265.4716 15.08836851 40911,6917.89,95.438,540.429,539.081,0.0
53561.0,STARLINK-4563,PAYLOAD,2023-05-16 14:28:22,15.08837546,9.27e-05,53.2175,359.3892,89.3115,270.7983,6.7282e-05,7.83e-06,0.0,0 STARLINK-4563,1 53561U 22101AL  23136.60303644  .00000783  00000-0  67282-4 0  9994,2 53561  53.2175 359.3892 0000927  89.3115 270.7983 15.08837546 41108,6917.888,95.438,540.394,539.112,0.0
53561.0,STARLINK-4563,PAYLOAD,2023-05-16 20:49:54,15.08837929,9.28e-05,53.2175,358.1997,88.9262,271.1837,6.6248e-05,7.67e-06,0.0,0 STARLINK-4563,1 53561U 22101AL  23136.86799647  .00000767  00000-0  66248-4 0  9997,2 53561  53.2175 358.1997 0000928  88.9262 271.1837 15.08837929 41142,6917.887,95.438,540.394,539.11,0.0
53561.0,STARLINK-4563,PAYLOAD,2023-05-17 06:22:14,15.08829337,0.0001007,53.2176,356.4153,79.6136,280.497,-3.1559e-05,-7.9e-06,0.0,0 STARLINK-4563,1 53561U 22101AL  23137.26544466 -.00000790  00000-0 -31559-4 0  9994,2 53561  53.2176 356.4153 0001007  79.6136 280.4970 15.08829337 41206,6917.913,95.438,540.475,539.081,0.0
53561.0,STARLINK-4563,PAYLOAD,2023-05-17 19:05:19,15.08836793,0.0001056,53.2176,354.0357,80.9445,279.1667,3.5153e-05,2.72e-06,0.0,0 STARLINK-4563,1 53561U 22101AL  23137.79536051  .00000272  00000-0  35153-4 0  9990,2 53561  53.2176 354.0357 0001056  80.9445 279.1667 15.08836793 41288,6917.89,95.438,540.486,539.025,0.0
53561.0,STARLINK-4563,PAYLOAD,2023-05-17 20:40:42,15.08836922,0.0001011,53.2178,353.7381,84.3478,275.763,6.6099e-05,7.64e-06,0.0,0 STARLINK-4563,1 53561U 22101AL  23137.86159973  .00000764  00000-0  66099-4 0  9991,2 53561  53.2178 353.7381 0001011  84.3478 275.7630 15.08836922 41295,6917.89,95.438,540.454,539.055,0.0
53561.0,STARLINK-4563,PAYLOAD,2023-05-18 01:26:51,15.0884197,0.0001016,53.2178,352.8462,82.1696,277.9411,0.00012678,1.731e-05,0.0,0 STARLINK-4563,1 53561U 22101AL  23138.06031682  .00001731  00000-0  12678-3 0  9998,2 53561  53.2178 352.8462 0001016  82.1696 277.9411 15.08841970 41322,6917.874,95.437,540.442,539.037,0.0
53561.0,STARLINK-4563,PAYLOAD,2023-05-18 20:31:28,15.08850079,0.0001012,53.2178,349.2776,81.6543,278.4564,0.0001228,1.668e-05,0.0,0 STARLINK-4563,1 53561U 22101AL  23138.85519122  .00001668  00000-0  12280-3 0  9993,2 53561  53.2178 349.2776 0001012  81.6543 278.4564 15.08850079 41449,6917.85,95.437,540.415,539.014,0.0
53561.0,STARLINK-4563,PAYLOAD,2023-05-19 17:11:29,15.08841848,0.0001083,53.2171,345.4119,79.9249,280.1866,0.00015001,2.101e-05,0.0,0 STARLINK-4563,1 53561U 22101AL  23139.71631653  .00002101  00000-0  15001-3 0  9990,2 53561  53.2171 345.4119 0001083  79.9249 280.1866 15.08841848 41575,6917.875,95.437,540.489,538.991,0.0
53561.0,STARLINK-4563,PAYLOAD,2023-05-19 20:22:15,15.08846176,0.0001044,53.217,344.8163,82.5766,277.5344,0.00015974,2.256e-05,0.0,0 STARLINK-4563,1 53561U 22101AL  23139.84879370  .00002256  00000-0  15974-3 0  9994,2 53561  53.2170 344.8163 0001044  82.5766 277.5344 15.08846176 41599,6917.862,95.437,540.449,539.004,0.0
